     2              NAVIGATION DATA                         RINEX VERSION / TYPE
CCRINEXN V1.6.0 UX  CDDIS               06-JAN-16 15:33     PGM / RUN BY / DATE 
IGS BROADCAST EPHEMERIS FILE                                COMMENT             
    0.1118D-07 -0.7451D-08 -0.5960D-07  0.1192D-06          ION ALPHA           
    0.1167D+06 -0.2294D+06 -0.1311D+06  0.1049D+07          ION BETA            
    0.000000000000D+00-0.177635683940D-14   319488     1878 DELTA-UTC: A0,A1,T,W
    17                                                      LEAP SECONDS        
                                                            END OF HEADER       
13 16  1  5 19 59 44.0-0.176411122084D-03-0.261479726760D-11 0.000000000000D+00
    0.130000000000D+02 0.570625000000D+02 0.415588739511D-08 0.132501376147D+01
    0.295974314213D-05 0.465590250678D-02 0.104662030935D-04 0.515368880272D+04
    0.244784000000D+06 0.502914190292D-07 0.254742949828D+01-0.104308128357D-06
    0.972514555306D+00 0.183437500000D+03 0.199561542071D+01-0.772532179066D-08
   -0.157506560781D-09 0.000000000000D+00 0.187800000000D+04 0.000000000000D+00
    0.200000000000D+01 0.000000000000D+00-0.111758708954D-07 0.130000000000D+02
    0.237600000000D+06 0.400000000000D+01 0.000000000000D+00 0.000000000000D+00
23 16  1  5 19 59 44.0-0.153442379087D-03-0.193267624127D-11 0.000000000000D+00
    0.350000000000D+02 0.518437500000D+02 0.477377027526D-08 0.197154315199D+01
    0.272132456303D-05 0.104051468661D-01 0.112298876047D-04 0.515375385475D+04
    0.244784000000D+06-0.260770320892D-06 0.243548975567D+01 0.558793544769D-07
    0.946863449806D+00 0.158718750000D+03-0.261737095480D+01-0.806462163815D-08
   -0.246795994330D-09 0.000000000000D+00 0.187800000000D+04 0.000000000000D+00
    0.200000000000D+01 0.000000000000D+00-0.200234353542D-07 0.350000000000D+02
    0.237600000000D+06 0.400000000000D+01 0.000000000000D+00 0.000000000000D+00
25 16  1  5 19 59 44.0-0.946130603552D-04-0.625277607469D-11 0.000000000000D+00
    0.230000000000D+02-0.542812500000D+02 0.428160691754D-08-0.621576252014D+00
   -0.291690230370D-05 0.491397047881D-02 0.369362533093D-05 0.515357554436D+04
    0.244784000000D+06 0.204890966415D-07-0.175313255488D+01 0.949949026108D-07
    0.978388253318D+00 0.315968750000D+03 0.696720831231D+00-0.819605568433D-08
   -0.272154193457D-09 0.100000000000D+01 0.187800000000D+04 0.000000000000D+00
    0.200000000000D+01 0.000000000000D+00 0.558793544769D-08 0.230000000000D+02
    0.242100000000D+06 0.400000000000D+01 0.000000000000D+00 0.000000000000D+00
 1 16  1  5 20  0  0.0 0.840704888105D-05 0.909494701773D-12 0.000000000000D+00
    0.162000000000D+03 0.140625000000D+01 0.461412076808D-08 0.106508046709D+01
   -0.372529029846D-08 0.493237259798D-02 0.747293233872D-05 0.515365220451D+04
    0.244800000000D+06 0.558793544769D-08 0.346755972647D+00 0.447034835815D-07
    0.963734144401D+00 0.236656250000D+03 0.484721283890D+00-0.805997858760D-08
    0.405016870578D-09 0.100000000000D+01 0.187800000000D+04 0.000000000000D+00
    0.200000000000D+01 0.000000000000D+00 0.512227416039D-08 0.162000000000D+03
    0.240006000000D+06 0.400000000000D+01 0.000000000000D+00 0.000000000000D+00
 3 16  1  5 20  0  0.0-0.759866088629D-05-0.511590769747D-11 0.000000000000D+00
    0.430000000000D+02-0.226250000000D+02 0.493663420206D-08-0.236983144387D+01
   -0.116787850857D-05 0.324971857481D-03 0.699236989021D-05 0.515378594971D+04
    0.244800000000D+06 0.447034835815D-07 0.138781601245D+01-0.167638063431D-07
    0.958776844607D+00 0.246906250000D+03 0.288607356530D+01-0.811498087867D-08
   -0.236438420038D-09 0.100000000000D+01 0.187800000000D+04 0.000000000000D+00
    0.200000000000D+01 0.000000000000D+00 0.186264514923D-08 0.430000000000D+02
    0.243666000000D+06 0.400000000000D+01 0.000000000000D+00 0.000000000000D+00
 5 16  1  5 20  0  0.0-0.158171635121D-03 0.352429196937D-11 0.000000000000D+00
    0.400000000000D+02-0.265625000000D+02 0.520378818724D-08-0.225606891997D+01
   -0.159442424774D-05 0.458658160642D-02 0.660680234432D-05 0.515370297241D+04
    0.244800000000D+06 0.279396772385D-07 0.137781811723D+01-0.104308128357D-06
    0.945906594589D+00 0.244468750000D+03 0.486545551512D+00-0.828498796015D-08
   -0.162506769059D-09 0.000000000000D+00 0.187800000000D+04 0.000000000000D+00
    0.200000000000D+01 0.000000000000D+00-0.107102096081D-07 0.400000000000D+02
    0.237600000000D+06 0.400000000000D+01 0.000000000000D+00 0.000000000000D+00
 6 16  1  5 20  0  0.0 0.124265905470D-03 0.625277607469D-11 0.000000000000D+00
    0.600000000000D+02 0.431250000000D+01 0.449983029314D-08 0.265600228518D+01
    0.342726707459D-06 0.234961276874D-03 0.762380659580D-05 0.515361056328D+04
    0.244800000000D+06-0.409781932831D-07 0.338304204825D+00-0.428408384323D-07
    0.963592086278D+00 0.231750000000D+03-0.266403835020D+01-0.797854662421D-08
    0.500377985609D-09 0.000000000000D+00 0.187800000000D+04 0.000000000000D+00
    0.200000000000D+01 0.000000000000D+00 0.419095158577D-08 0.600000000000D+02
    0.237600000000D+06 0.400000000000D+01 0.000000000000D+00 0.000000000000D+00
 7 16  1  5 20  0  0.0 0.474856235087D-03-0.136424205266D-11 0.000000000000D+00
    0.230000000000D+02 0.913750000000D+02 0.451554523344D-08 0.380957401296D+00
    0.479072332382D-05 0.900103140157D-02 0.477023422718D-05 0.515368434525D+04
    0.244800000000D+06 0.372529029846D-08-0.277714736811D+01 0.745058059692D-07
    0.968260393921D+00 0.288125000000D+03-0.267866326512D+01-0.834249035535D-08
    0.478591363823D-10 0.000000000000D+00 0.187800000000D+04 0.000000000000D+00
    0.200000000000D+01 0.000000000000D+00-0.111758708954D-07 0.230000000000D+02
    0.237600000000D+06 0.400000000000D+01 0.000000000000D+00 0.000000000000D+00
 8 16  1  5 20  0  0.0-0.189379788935D-04-0.147792889038D-11 0.000000000000D+00
    0.117000000000D+03-0.688437500000D+02 0.423339062343D-08-0.177482377375D+01
   -0.343471765518D-05 0.171068590134D-02 0.993162393570D-05 0.515363373566D+04
    0.244800000000D+06 0.465661287308D-07-0.711985780128D+00 0.596046447754D-07
    0.961895016457D+00 0.188062500000D+03-0.151713352192D+01-0.789425739894D-08
    0.166792661870D-09 0.100000000000D+01 0.187800000000D+04 0.000000000000D+00
    0.200000000000D+01 0.000000000000D+00 0.465661287308D-08 0.117000000000D+03
    0.237618000000D+06 0.400000000000D+01 0.000000000000D+00 0.000000000000D+00
 9 16  1  5 20  0  0.0 0.437768176198D-04 0.795807864051D-11 0.000000000000D+00
    0.870000000000D+02 0.441250000000D+02 0.453518890882D-08-0.308176134638D+01
    0.237673521042D-05 0.554388388991D-03 0.110547989607D-04 0.515366851616D+04
    0.244800000000D+06 0.204890966415D-07 0.242892960091D+01 0.130385160446D-07
    0.955893095139D+00 0.164812500000D+03 0.189268367371D+01-0.794068790438D-08
   -0.215366113720D-09 0.000000000000D+00 0.187800000000D+04 0.000000000000D+00
    0.200000000000D+01 0.000000000000D+00 0.931322574616D-09 0.870000000000D+02
    0.237600000000D+06 0.400000000000D+01 0.000000000000D+00 0.000000000000D+00
10 16  1  5 20  0  0.0 0.488939695060D-04 0.147792889038D-11 0.000000000000D+00
    0.900000000000D+01-0.183437500000D+02 0.482877256633D-08-0.984010430361D+00
   -0.990927219391D-06 0.976928975433D-03 0.697746872902D-05 0.515367897034D+04
    0.244800000000D+06 0.149011611938D-07 0.138368847686D+01 0.316649675369D-07
    0.959047140666D+00 0.243250000000D+03-0.295979457747D+01-0.807319342377D-08
   -0.217509060125D-09 0.100000000000D+01 0.187800000000D+04 0.000000000000D+00
    0.200000000000D+01 0.000000000000D+00 0.325962901115D-08 0.900000000000D+01
    0.237618000000D+06 0.400000000000D+01 0.000000000000D+00 0.000000000000D+00
11 16  1  5 20  0  0.0-0.625643879175D-03-0.193267624127D-11 0.000000000000D+00
    0.540000000000D+02-0.728125000000D+01 0.610918304342D-08 0.496250986000D+00
   -0.417232513428D-06 0.162205552915D-01 0.867806375027D-05 0.515364504433D+04
    0.244800000000D+06-0.178813934326D-06-0.199211245605D-01-0.745058059692D-07
    0.895596069423D+00 0.180375000000D+03 0.149359512029D+01-0.903180478235D-08
    0.417874549009D-09 0.100000000000D+01 0.187800000000D+04 0.000000000000D+00
    0.200000000000D+01 0.000000000000D+00-0.121071934700D-07 0.540000000000D+02
    0.238128000000D+06 0.400000000000D+01 0.000000000000D+00 0.000000000000D+00
12 16  1  5 20  0  0.0 0.358778983355D-03 0.284217094304D-11 0.000000000000D+00
    0.700000000000D+01-0.507187500000D+02 0.399123767964D-08 0.282598761087D-02
   -0.269524753094D-05 0.568116700742D-02 0.376254320145D-05 0.515355246925D+04
    0.244800000000D+06 0.111758708954D-07-0.170388276821D+01 0.745058059692D-07
    0.990037657237D+00 0.321562500000D+03 0.641402817939D+00-0.807747931658D-08
   -0.243581574722D-09 0.100000000000D+01 0.187800000000D+04 0.000000000000D+00
    0.200000000000D+01 0.000000000000D+00-0.125728547573D-07 0.700000000000D+01
    0.237600000000D+06 0.400000000000D+01 0.000000000000D+00 0.000000000000D+00
14 16  1  5 20  0  0.0 0.110170803964D-04-0.227373675443D-11 0.000000000000D+00
    0.680000000000D+02 0.648750000000D+02 0.423267630796D-08-0.311195730387D+01
    0.340491533279D-05 0.829839089420D-02 0.103451311588D-04 0.515371170235D+04
    0.244800000000D+06 0.104308128357D-06 0.251133503461D+01-0.100582838059D-06
    0.964973218459D+00 0.179218750000D+03-0.194729104382D+01-0.765496171703D-08
   -0.201079804352D-09 0.100000000000D+01 0.187800000000D+04 0.000000000000D+00
    0.200000000000D+01 0.000000000000D+00-0.931322574616D-08 0.680000000000D+02
    0.237618000000D+06 0.400000000000D+01 0.000000000000D+00 0.000000000000D+00
